1 29155U 06018A   10027.29623807 -.00000082  00000-0  10000-3 0  9449
2 29155 000.4261 091.0760 0002774 164.7000 231.9587 01.00272398 13504